      2.10          N: GNSS NAV DATA                        RINEX VERSION / TYPE
fic2rin                                 05/31/2023 00:18:06 PGM / RUN BY / DATE
                                                            END OF HEADER
5  23  5 30  1 59 44.0 -.129114836454D-03 -.147792889038D-11  .000000000000D+00
     .700000000000D+01  .152187500000D+02  .465162233017D-08  .251302639320D+01
     .737607479095D-06  .595814594999D-02  .669620931149D-05  .515367338181D+04
     .179984000000D+06  .447034835815D-07 -.302991713155D+01 -.968575477600D-07
     .966330009146D+00  .255343750000D+03  .115055719490D+01 -.802104839458D-08
     .396087927223D-09  .100000000000D+01  .226400000000D+04  .000000000000D+00
     .240000000000D+01  .000000000000D+00 -.111758708954D-07  .700000000000D+01
     .172800000000D+06  .400000000000D+01
14 23  5 30  8  0  0.0  .738995149732D-04  .126192389871D-10  .000000000000D+00
     .214000000000D+03  .809062500000D+02  .507056835238D-08  .167973479787D+01
     .435300171375D-05  .318046810571D-02  .611133873463D-05  .515367994499D+04
     .201600000000D+06  .502914190292D-07  .188302258173D+00  .651925802231D-07
     .949121705243D+00  .256187500000D+03 -.301601093511D+01 -.845856661897D-08
     .978612191697D-10  .100000000000D+01  .226400000000D+04  .000000000000D+00
     .240000000000D+01  .000000000000D+00 -.791624188423D-08  .470000000000D+03
     .194400000000D+06  .400000000000D+01
22 23  5 30  8  0  0.0  .489735975862D-03  .613908923697D-11  .000000000000D+00
     .930000000000D+02 -.415937500000D+02  .482698677766D-08 -.121045621913D+01
    -.179186463356D-05  .143596578855D-01  .679306685925D-05  .515363237000D+04
     .201600000000D+06 -.596046447754D-07 -.185423690800D+01  .368803739548D-06
     .962296073985D+00  .250500000000D+03 -.180200023906D+01 -.823641450830D-08
    -.110361739867D-09  .100000000000D+01  .226400000000D+04  .000000000000D+00
     .340000000000D+01  .630000000000D+02 -.838190317154D-08  .930000000000D+02
     .194400000000D+06  .400000000000D+01
13 23  5 30  7 59 44.0  .527051277459D-03  .522959453519D-11  .000000000000D+00
     .400000000000D+01 -.531250000000D+02  .463305012799D-08 -.140772027834D+01
    -.265426933765D-05  .698701827787D-02  .657886266708D-05  .515366508102D+04
     .201584000000D+06  .193715095520D-06 -.179912715865D+01  .745058059692D-08
     .969414358331D+00  .254437500000D+03  .906915997857D+00 -.806855037322D-08
    -.165721188667D-09  .100000000000D+01  .226400000000D+04  .000000000000D+00
     .240000000000D+01  .000000000000D+00 -.111758708954D-07  .400000000000D+01
     .194910000000D+06  .400000000000D+01
30 23  5 30  7 59 44.0 -.514205545187D-03  .227373675443D-11  .000000000000D+00
     .000000000000D+00  .984375000000D+01  .510521265260D-08  .231527254609D+01
     .534579157829D-06  .651509012096D-02  .118520110846D-04  .515359531975D+04
     .201584000000D+06 -.145286321640D-06 -.881302424983D+00 -.707805156708D-07
     .935415125440D+00  .139468750000D+03 -.258010777319D+01 -.815605401810D-08
    -.835749098019D-10  .100000000000D+01  .226400000000D+04  .000000000000D+00
     .240000000000D+01  .000000000000D+00  .372529029846D-08  .000000000000D+00
     .195030000000D+06  .400000000000D+01
26 23  5 30  7 59 44.0  .240041408688D-03 -.682121026330D-12  .000000000000D+00
     .500000000000D+01  .781875000000D+02  .537486674192D-08  .803441828634D+00
     .434741377831D-05  .791176746134D-02  .619702041149D-05  .515369717598D+04
     .201584000000D+06  .260770320892D-07  .889759152097D-01  .108033418655D-06
     .934261133235D+00  .242531250000D+03  .463110892713D+00 -.862643075404D-08
    -.125005206969D-10  .100000000000D+01  .226400000000D+04  .000000000000D+00
     .240000000000D+01  .000000000000D+00  .698491930962D-08  .500000000000D+01
     .195090000000D+06  .400000000000D+01
13 23  5 30  9 59 44.0  .527088996023D-03  .522959453519D-11  .000000000000D+00
     .500000000000D+01 -.517187500000D+02  .464947938376D-08 -.357568436743D+00
    -.258162617683D-05  .698694225866D-02  .697374343872D-05  .515366463089D+04
     .208784000000D+06  .428408384323D-07 -.179918580557D+01  .838190317154D-07
     .969412412650D+00  .252625000000D+03  .906951472158D+00 -.821855662159D-08
    -.182507602174D-09  .100000000000D+01  .226400000000D+04  .000000000000D+00
     .240000000000D+01  .000000000000D+00 -.111758708954D-07  .500000000000D+01
     .201600000000D+06  .400000000000D+01
30 23  5 30  9 59 44.0 -.514188781381D-03  .227373675443D-11  .000000000000D+00
     .100000000000D+01  .177812500000D+02  .500699427569D-08 -.291768267971D+01
     .780448317528D-06  .651399511844D-02  .117067247629D-04  .515359726334D+04
     .208784000000D+06 -.391155481339D-07 -.881360861246D+00 -.117346644402D-06
     .935414800673D+00  .143906250000D+03 -.258010535060D+01 -.810319467344D-08
    -.692886004340D-10  .100000000000D+01  .226400000000D+04  .000000000000D+00
     .240000000000D+01  .000000000000D+00  .372529029846D-08  .100000000000D+01
     .201600000000D+06  .400000000000D+01
